start=new Date('2022-08-12T00:00:00.000Z').valueOf();
sats=[{"GP_ID":"210038532","EPOCH":"2022-08-11T16:54:07.947360","TLE_LINE1":"1 49419U 21104M   22223.70425865 -.00001784  00000-0 -94035-4 0  9990","OBJECT_TYPE":"PAYLOAD","CENTER_NAME":"EARTH","MEAN_MOTION_DOT":"-0.00001784","MEAN_MOTION":"15.08838710","ARG_OF_PERICENTER":"69.6594","EPHEMERIS_TYPE":"0","SITE":"AFETR","PERIAPSIS":"538.574","REV_AT_EPOCH":"4254","LAUNCH_DATE":"2021-11-13","CLASSIFICATION_TYPE":"U","RA_OF_ASC_NODE":"331.9301","BSTAR":"-0.00009403500000","FILE":"3534625","RCS_SIZE":"LARGE","TIME_SYSTEM":"UTC","MEAN_ELEMENT_THEORY":"SGP4","MEAN_ANOMALY":"290.4580","NORAD_CAT_ID":"49419","INCLINATION":"53.2174","DECAY_DATE":null,"PERIOD":"95.438","COUNTRY_CODE":"US","APOAPSIS":"540.925","OBJECT_NAME":"STARLINK-3120","ELEMENT_SET_NO":"999","TLE_LINE2":"2 49419  53.2174 331.9301 0001699  69.6594 290.4580 15.08838710 42549","REF_FRAME":"TEME","MEAN_MOTION_DDOT":"0.0000000000000","OBJECT_ID":"2021-104M","SEMIMAJOR_AXIS":"6917.884","ECCENTRICITY":"0.00016990"},{"DECAY_DATE":null,"PERIOD":"95.438","APOAPSIS":"540.745","COUNTRY_CODE":"US","OBJECT_NAME":"STARLINK-3110","ELEMENT_SET_NO":"999","REF_FRAME":"TEME","MEAN_MOTION_DDOT":"0.0000000000000","TLE_LINE2":"2 49420  53.2187 331.8804 0001406  73.0164 287.0982 15.08831220 42569","OBJECT_ID":"2021-104N","SEMIMAJOR_AXIS":"6917.907","ECCENTRICITY":"0.00014060","GP_ID":"210039063","EPOCH":"2022-08-11T17:04:44.074272","TLE_LINE1":"1 49420U 21104N   22223.71162123  .00001190  00000-0  92874-4 0  9996","MEAN_MOTION":"15.08831220","OBJECT_TYPE":"PAYLOAD","CENTER_NAME":"EARTH","MEAN_MOTION_DOT":"0.00001190","EPHEMERIS_TYPE":"0","SITE":"AFETR","ARG_OF_PERICENTER":"73.0164","LAUNCH_DATE":"2021-11-13","REV_AT_EPOCH":"4256","PERIAPSIS":"538.800","FILE":"3534646","RCS_SIZE":"LARGE","BSTAR":"0.00009287400000","CLASSIFICATION_TYPE":"U","RA_OF_ASC_NODE":"331.8804","MEAN_ANOMALY":"287.0982","NORAD_CAT_ID":"49420","INCLINATION":"53.2187","TIME_SYSTEM":"UTC","MEAN_ELEMENT_THEORY":"SGP4"},{"TLE_LINE2":"2 49421  53.2179 331.6638 0001716  53.8723 306.2428 15.08835376 42559","REF_FRAME":"TEME","MEAN_MOTION_DDOT":"0.0000000000000","OBJECT_ID":"2021-104P","SEMIMAJOR_AXIS":"6917.895","ECCENTRICITY":"0.00017160","DECAY_DATE":null,"PERIOD":"95.438","COUNTRY_CODE":"US","APOAPSIS":"540.947","OBJECT_NAME":"STARLINK-3112","ELEMENT_SET_NO":"999","PERIAPSIS":"538.572","REV_AT_EPOCH":"4255","LAUNCH_DATE":"2021-11-13","CLASSIFICATION_TYPE":"U","RA_OF_ASC_NODE":"331.6638","BSTAR":"0.00015790000000","FILE":"3534648","RCS_SIZE":"LARGE","TIME_SYSTEM":"UTC","MEAN_ELEMENT_THEORY":"SGP4","MEAN_ANOMALY":"306.2428","INCLINATION":"53.2179","NORAD_CAT_ID":"49421","GP_ID":"210038810","EPOCH":"2022-08-11T18:18:55.591488","TLE_LINE1":"1 49421U 21104P   22223.76314342  .00002226  00000-0  15790-3 0  9996","OBJECT_TYPE":"PAYLOAD","MEAN_MOTION_DOT":"0.00002226","CENTER_NAME":"EARTH","MEAN_MOTION":"15.08835376","ARG_OF_PERICENTER":"53.8723","EPHEMERIS_TYPE":"0","SITE":"AFETR"},{"PERIAPSIS":"538.696","REV_AT_EPOCH":"4256","LAUNCH_DATE":"2021-11-13","CLASSIFICATION_TYPE":"U","RA_OF_ASC_NODE":"331.9120","FILE":"3534665","BSTAR":"0.00001464700000","RCS_SIZE":"LARGE","MEAN_ELEMENT_THEORY":"SGP4","TIME_SYSTEM":"UTC","MEAN_ANOMALY":"291.9455","INCLINATION":"53.2182","NORAD_CAT_ID":"49422","GP_ID":"210039002","EPOCH":"2022-08-11T16:59:27.345696","TLE_LINE1":"1 49422U 21104Q   22223.70795539 -.00000055  00000-0  14647-4 0  9992","CENTER_NAME":"EARTH","OBJECT_TYPE":"PAYLOAD","MEAN_MOTION_DOT":"-0.00000055","MEAN_MOTION":"15.08824692","ARG_OF_PERICENTER":"68.1706","EPHEMERIS_TYPE":"0","SITE":"AFETR","TLE_LINE2":"2 49422  53.2182 331.9120 0001584  68.1706 291.9455 15.08824692 42566","REF_FRAME":"TEME","MEAN_MOTION_DDOT":"0.0000000000000","OBJECT_ID":"2021-104Q","SEMIMAJOR_AXIS":"6917.927","ECCENTRICITY":"0.00015840","PERIOD":"95.439","DECAY_DATE":null,"COUNTRY_CODE":"US","APOAPSIS":"540.888","OBJECT_NAME":"STARLINK-3161","ELEMENT_SET_NO":"999"},{"ECCENTRICITY":"0.00016390","SEMIMAJOR_AXIS":"6917.938","OBJECT_ID":"2021-104R","REF_FRAME":"TEME","MEAN_MOTION_DDOT":"0.0000000000000","TLE_LINE2":"2 49423  53.2181 331.9979 0001639  60.7809 299.3347 15.08821178 42547","ELEMENT_SET_NO":"999","OBJECT_NAME":"STARLINK-3149","APOAPSIS":"540.937","COUNTRY_CODE":"US","PERIOD":"95.439","DECAY_DATE":null,"MEAN_ANOMALY":"299.3347","INCLINATION":"53.2181","NORAD_CAT_ID":"49423","TIME_SYSTEM":"UTC","MEAN_ELEMENT_THEORY":"SGP4","RCS_SIZE":"LARGE","FILE":"3534660","BSTAR":"0.00004395100000","CLASSIFICATION_TYPE":"U","RA_OF_ASC_NODE":"331.9979","REV_AT_EPOCH":"4254","LAUNCH_DATE":"2021-11-13","PERIAPSIS":"538.669","EPHEMERIS_TYPE":"0","SITE":"AFETR","ARG_OF_PERICENTER":"60.7809","MEAN_MOTION":"15.08821178","OBJECT_TYPE":"PAYLOAD","CENTER_NAME":"EARTH","MEAN_MOTION_DOT":"0.00000411","TLE_LINE1":"1 49423U 21104R   22223.68956129  .00000411  00000-0  43951-4 0  9999","EPOCH":"2022-08-11T16:32:58.095456","GP_ID":"210039011"},{"OBJECT_NAME":"STARLINK-3135","ELEMENT_SET_NO":"999","DECAY_DATE":null,"PERIOD":"95.438","APOAPSIS":"540.695","COUNTRY_CODE":"US","SEMIMAJOR_AXIS":"6917.919","ECCENTRICITY":"0.00013180","REF_FRAME":"TEME","MEAN_MOTION_DDOT":"0.0000000000000","TLE_LINE2":"2 49424  53.2193 331.9434 0001318  73.0155 287.0982 15.08827516 42543","OBJECT_ID":"2021-104S","MEAN_MOTION":"15.08827516","OBJECT_TYPE":"PAYLOAD","MEAN_MOTION_DOT":"-0.00000108","CENTER_NAME":"EARTH","EPHEMERIS_TYPE":"0","SITE":"AFETR","ARG_OF_PERICENTER":"73.0155","EPOCH":"2022-08-11T16:48:51.465024","GP_ID":"210039320","TLE_LINE1":"1 49424U 21104S   22223.70059566 -.00000108  00000-0  11278-4 0  9993","BSTAR":"0.00001127800000","FILE":"3534660","RCS_SIZE":"LARGE","CLASSIFICATION_TYPE":"U","RA_OF_ASC_NODE":"331.9434","MEAN_ANOMALY":"287.0982","INCLINATION":"53.2193","NORAD_CAT_ID":"49424","MEAN_ELEMENT_THEORY":"SGP4","TIME_SYSTEM":"UTC","LAUNCH_DATE":"2021-11-13","REV_AT_EPOCH":"4254","PERIAPSIS":"538.872"},{"MEAN_MOTION":"15.08832035","CENTER_NAME":"EARTH","OBJECT_TYPE":"PAYLOAD","MEAN_MOTION_DOT":"0.00000267","EPHEMERIS_TYPE":"0","SITE":"AFETR","ARG_OF_PERICENTER":"49.6260","EPOCH":"2022-08-11T16:27:38.912256","GP_ID":"210039326","TLE_LINE1":"1 49425U 21104T   22223.68586704  .00000267  00000-0  34858-4 0  9994","FILE":"3534661","RCS_SIZE":"LARGE","BSTAR":"0.00003485800000","CLASSIFICATION_TYPE":"U","RA_OF_ASC_NODE":"332.0100","MEAN_ANOMALY":"310.4890","INCLINATION":"53.2177","NORAD_CAT_ID":"49425","MEAN_ELEMENT_THEORY":"SGP4","TIME_SYSTEM":"UTC","REV_AT_EPOCH":"4254","LAUNCH_DATE":"2021-11-13","PERIAPSIS":"538.512","OBJECT_NAME":"STARLINK-3139","ELEMENT_SET_NO":"999","PERIOD":"95.438","DECAY_DATE":null,"APOAPSIS":"541.027","COUNTRY_CODE":"US","SEMIMAJOR_AXIS":"6917.905","ECCENTRICITY":"0.00018180","REF_FRAME":"TEME","MEAN_MOTION_DDOT":"0.0000000000000","TLE_LINE2":"2 49425  53.2177 332.0100 0001818  49.6260 310.4890 15.08832035 42540","OBJECT_ID":"2021-104T"},{"BSTAR":"0.00103330000000","FILE":"3534720","RCS_SIZE":"LARGE","CLASSIFICATION_TYPE":"U","RA_OF_ASC_NODE":"331.9785","MEAN_ANOMALY":"307.1715","INCLINATION":"53.2177","NORAD_CAT_ID":"49426","MEAN_ELEMENT_THEORY":"SGP4","TIME_SYSTEM":"UTC","LAUNCH_DATE":"2021-11-13","REV_AT_EPOCH":"4254","PERIAPSIS":"538.463","MEAN_MOTION":"15.08848564","OBJECT_TYPE":"PAYLOAD","CENTER_NAME":"EARTH","MEAN_MOTION_DOT":"0.00016199","EPHEMERIS_TYPE":"0","SITE":"AFETR","ARG_OF_PERICENTER":"52.9443","GP_ID":"210040424","EPOCH":"2022-08-11T16:38:15.408096","TLE_LINE1":"1 49426U 21104U   22223.69323389  .00016199  00000-0  10333-2 0  9995","SEMIMAJOR_AXIS":"6917.854","ECCENTRICITY":"0.00018160","REF_FRAME":"TEME","MEAN_MOTION_DDOT":"0.0000000000000","TLE_LINE2":"2 49426  53.2177 331.9785 0001816  52.9443 307.1715 15.08848564 42549","OBJECT_ID":"2021-104U","OBJECT_NAME":"STARLINK-3114","ELEMENT_SET_NO":"999","PERIOD":"95.437","DECAY_DATE":null,"APOAPSIS":"540.975","COUNTRY_CODE":"US"},{"TLE_LINE2":"2 49427  53.2186 331.7317 0001593  23.6852 336.4214 15.08826308 42574","MEAN_MOTION_DDOT":"0.0000000000000","REF_FRAME":"TEME","OBJECT_ID":"2021-104V","SEMIMAJOR_AXIS":"6917.922","ECCENTRICITY":"0.00015930","DECAY_DATE":null,"PERIOD":"95.438","COUNTRY_CODE":"US","APOAPSIS":"540.889","OBJECT_NAME":"STARLINK-3131","ELEMENT_SET_NO":"999","PERIAPSIS":"538.685","REV_AT_EPOCH":"4257","LAUNCH_DATE":"2021-11-13","RA_OF_ASC_NODE":"331.7317","CLASSIFICATION_TYPE":"U","RCS_SIZE":"LARGE","FILE":"3534669","BSTAR":"0.00000028809000","MEAN_ELEMENT_THEORY":"SGP4","TIME_SYSTEM":"UTC","INCLINATION":"53.2186","NORAD_CAT_ID":"49427","MEAN_ANOMALY":"336.4214","EPOCH":"2022-08-11T17:57:45.342144","GP_ID":"210039386","TLE_LINE1":"1 49427U 21104V   22223.74844146 -.00000283  00000-0  28809-6 0  9990","OBJECT_TYPE":"PAYLOAD","CENTER_NAME":"EARTH","MEAN_MOTION_DOT":"-0.00000283","MEAN_MOTION":"15.08826308","ARG_OF_PERICENTER":"23.6852","SITE":"AFETR","EPHEMERIS_TYPE":"0"},{"MEAN_ANOMALY":"299.3858","NORAD_CAT_ID":"49428","INCLINATION":"53.2174","TIME_SYSTEM":"UTC","MEAN_ELEMENT_THEORY":"SGP4","FILE":"3534676","BSTAR":"0.00013632000000","RCS_SIZE":"LARGE","CLASSIFICATION_TYPE":"U","RA_OF_ASC_NODE":"331.7734","REV_AT_EPOCH":"4255","LAUNCH_DATE":"2021-11-13","PERIAPSIS":"538.788","EPHEMERIS_TYPE":"0","SITE":"AFETR","ARG_OF_PERICENTER":"60.7281","MEAN_MOTION":"15.08821253","OBJECT_TYPE":"PAYLOAD","MEAN_MOTION_DOT":"0.00001881","CENTER_NAME":"EARTH","TLE_LINE1":"1 49428U 21104W   22223.73835519  .00001881  00000-0  13632-3 0  9993","EPOCH":"2022-08-11T17:43:13.888416","GP_ID":"210039455","ECCENTRICITY":"0.00014670","SEMIMAJOR_AXIS":"6917.938","OBJECT_ID":"2021-104W","REF_FRAME":"TEME","MEAN_MOTION_DDOT":"0.0000000000000","TLE_LINE2":"2 49428  53.2174 331.7734 0001467  60.7281 299.3858 15.08821253 42556","ELEMENT_SET_NO":"999","OBJECT_NAME":"STARLINK-3121","APOAPSIS":"540.818","COUNTRY_CODE":"US","PERIOD":"95.439","DECAY_DATE":null}];
